ONEWEB-0349             
1 49281U 21090C   23059.24540547  .00000060  00000+0  11545-3 0  9990
2 49281  87.9331 154.2646 0002258 110.3669 249.7707 13.20772486 72069
ONEWEB-0349             
1 49281U 21090C   23059.32116279 -.00000062  00000+0 -18543-3 0  9999
2 49281  87.9331 154.2496 0002255 110.2359 249.9017 13.20772166 70782
ONEWEB-0349             
1 49281U 21090C   23059.77570367  .00000008  00000+0 -11240-4 0  9997
2 49281  87.9330 154.1598 0002258 109.8903 250.2474 13.20771882 70848
ONEWEB-0349             
1 49281U 21090C   23060.30600106 -.00000041  00000+0 -13155-3 0  9997
2 49281  87.9330 154.0548 0002287 109.8529 250.2851 13.20772263 70919
ONEWEB-0349             
1 49281U 21090C   23060.30600106 -.00000041  00000+0 -13155-3 0  9997
2 49281  87.9330 154.0548 0002287 109.8529 250.2851 13.20772263 72203
ONEWEB-0349             
1 49281U 21090C   23061.82113679  .00000518  00000+0  12430-2 0  9990
2 49281  87.9322 153.7544 0002151 109.0905 251.0462 13.20770259 71115
ONEWEB-0349             
1 49281U 21090C   23062.27567711  .00000117  00000+0  25611-3 0  9991
2 49281  87.9323 153.6644 0002351 109.9128 250.2259 13.20772338 71175
ONEWEB-0349             
1 49281U 21090C   23062.27567711  .00000117  00000+0  25611-3 0  9991
2 49281  87.9323 153.6644 0002351 109.9128 250.2259 13.20772338 72468
